[{"OBJECT_NAME":"STARLINK-30769","OBJECT_ID":"2023-162W","EPOCH":"2026-03-09T22:00:01.999584","MEAN_MOTION":15.26764991,"ECCENTRICITY":0.00013209,"INCLINATION":43.001,"RA_OF_ASC_NODE":130.8086,"ARG_OF_PERICENTER":263.593,"MEAN_ANOMALY":194.3047,"EPHEMERIS_TYPE":0,"CLASSIFICATION_TYPE":"U","NORAD_CAT_ID":58138,"ELEMENT_SET_NO":999,"REV_AT_EPOCH":578,"BSTAR":0.00016489933,"MEAN_MOTION_DOT":4.169e-5,"MEAN_MOTION_DDOT":0},{"OBJECT_NAME":"OBJECT C","OBJECT_ID":"2024-092C","EPOCH":"2026-03-09T23:10:26.961312","MEAN_MOTION":15.27308901,"ECCENTRICITY":0.00097974,"INCLINATION":97.6475,"RA_OF_ASC_NODE":197.1606,"ARG_OF_PERICENTER":169.1353,"MEAN_ANOMALY":191.0098,"EPHEMERIS_TYPE":0,"CLASSIFICATION_TYPE":"U","NORAD_CAT_ID":59775,"ELEMENT_SET_NO":999,"REV_AT_EPOCH":10042,"BSTAR":0.00057925748,"MEAN_MOTION_DOT":0.00015454,"MEAN_MOTION_DDOT":0}]
